OBJECT_NAME,OBJECT_ID,EPOCH,MEAN_MOTION,ECCENTRICITY,INCLINATION,RA_OF_ASC_NODE,ARG_OF_PERICENTER,MEAN_ANOMALY,EPHEMERIS_TYPE,CLASSIFICATION_TYPE,NORAD_CAT_ID,ELEMENT_SET_NO,REV_AT_EPOCH,BSTAR,MEAN_MOTION_DOT,MEAN_MOTION_DDOT
STARLINK-36441,2026-008AA,2026-07-13T09:29:10.070880,15.27588971,.000124,42.9996,215.6117,284.1336,75.9378,0,U,67469,999,2879,.34305E-3,.9192E-4,0
STARLINK-36454,2026-008AB,2026-07-13T10:09:37.948032,15.27584384,.0001902,42.9988,214.9512,262.7285,97.3351,0,U,67470,999,2880,-.20782E-3,-.5977E-4,0
STARLINK-36334,2026-008AC,2026-07-13T09:38:24.877248,15.27591944,.0001734,42.9997,215.6540,275.5235,84.5419,0,U,67471,999,2879,.23999E-3,.635E-4,0
STARLINK-36269,2026-008AD,2026-07-13T10:52:13.106208,15.27586384,.0001826,43.0011,215.1804,277.1369,82.9275,0,U,67472,999,2880,.23134E-3,.611E-4,0
STARLINK-36408,2026-008AE,2026-07-13T02:50:20.432256,15.27589148,.00011192,43.0009,216.9644,258.5128,101.5598,0,U,67473,999,2875,.52439153E-3,.142E-3,0
STARLINK-36551,2026-012A,2026-07-13T09:39:09.824256,15.27608522,.0000928,43.0034,324.8258,156.9979,203.0915,0,U,67493,999,2698,.53919E-3,.14617E-3,0
STARLINK-36396,2026-012B,2026-07-13T09:11:24.895392,15.27590308,.0001209,42.9990,324.6974,265.5532,94.5182,0,U,67494,999,2698,.4698E-3,.12692E-3,0
STARLINK-36550,2026-012C,2026-07-13T09:28:05.601792,15.27593105,.000129,43.0020,324.7726,263.5009,96.5696,0,U,67495,999,2698,.58074E-3,.15759E-3,0
STARLINK-36534,2026-012D,2026-07-13T09:18:48.784032,15.27595826,.0002339,43.0035,324.7202,279.5391,80.5197,0,U,67496,999,2698,.29607E-3,.7898E-4,0
STARLINK-36555,2026-012E,2026-07-13T09:22:30.862272,15.27577133,.000077,43.0007,324.7348,270.8542,89.2222,0,U,67497,999,2698,.46694E-3,.12608E-3,0
STARLINK-36081,2026-012F,2026-07-13T10:47:25.092672,15.27585384,.000193,42.9993,324.3238,279.6021,80.4612,0,U,67498,999,2699,.35031E-3,.9392E-4,0
STARLINK-36558,2026-012G,2026-07-13T09:07:42.708288,15.27588800,.0003048,43.0040,324.6702,286.6616,73.3901,0,U,67499,999,2698,.33284E-3,.8911E-4,0
STARLINK-36557,2026-012H,2026-07-13T09:02:09.796128,15.27577365,.000129,42.9981,324.6226,215.6418,144.4347,0,U,67500,999,2698,.32641E-3,.873E-4,0
STARLINK-36433,2026-012J,2026-07-13T08:56:36.508128,15.27590072,.000228,43.0034,324.5989,293.0884,66.9727,0,U,67501,999,2698,.38741E-3,.10417E-3,0
STARLINK-36554,2026-012K,2026-07-13T10:21:30.290976,15.27594488,.0001581,42.9990,324.1719,210.6564,149.4195,0,U,67502,999,2699,.46467E-3,.12552E-3,0
STARLINK-36552,2026-012L,2026-07-13T10:15:57.498912,15.27589981,.000167,43.0019,324.1419,270.6970,89.3690,0,U,67503,999,2699,.51088E-3,.13827E-3,0
STARLINK-36512,2026-012M,2026-07-13T10:04:51.280608,15.27587323,.0001085,43.0014,324.0821,218.2641,141.8134,0,U,67504,999,2699,.3659E-3,.9822E-4,0
STARLINK-36545,2026-012N,2026-07-12T18:17:43.771488,15.27582013,.00036962,43.0078,327.7484,272.6266,87.4163,0,U,67505,999,2689,.41490122E-3,.11174E-3,0
STARLINK-36553,2026-012P,2026-07-13T09:53:45.081312,15.27592518,.0000855,42.9981,324.0183,213.2591,146.8207,0,U,67506,999,2699,.41738E-3,.11245E-3,0
STARLINK-36521,2026-012Q,2026-07-13T09:50:02.977152,15.27572972,.0001588,43.0034,324.0028,266.6872,93.3798,0,U,67507,999,2699,.29698E-3,.7917E-4,0
STARLINK-36526,2026-012R,2026-07-13T09:44:29.876640,15.27592626,.0001098,42.9988,323.9673,243.2830,116.7909,0,U,67508,999,2699,.37261E-3,.10009E-3,0
STARLINK-36541,2026-012S,2026-07-13T08:03:10.363104,15.27618016,.0000988,43.0016,325.1962,265.8620,94.2119,0,U,67509,999,2697,.66308E-3,.1805E-3,0
STARLINK-36549,2026-012T,2026-07-13T09:46:20.491968,15.27592131,.0001492,42.9988,323.9613,180.5721,179.5129,0,U,67510,999,2699,.39496E-3,.10626E-3,0
STARLINK-36540,2026-012U,2026-07-13T09:31:45.208992,15.27599211,.0002156,42.9980,324.7902,281.0213,79.0396,0,U,67511,999,2698,.23989E-3,.6349E-4,0
STARLINK-36538,2026-012V,2026-07-12T17:42:48.032352,15.27584600,.00012726,43.0004,328.4277,260.2103,99.8605,0,U,67512,999,2688,.43837104E-3,.11822E-3,0
STARLINK-36531,2026-012W,2026-07-13T09:09:33.232896,15.27599782,.0001047,42.9995,324.6609,272.5267,87.5464,0,U,67513,999,2698,.2876E-3,.7665E-4,0
STARLINK-36530,2026-012X,2026-07-13T09:04:00.420096,15.27589458,.0002355,42.9998,324.6320,278.0902,81.9683,0,U,67514,999,2698,.40367E-3,.10866E-3,0
STARLINK-36543,2026-012Y,2026-07-12T17:16:53.667840,15.27588288,.00009645,42.9998,328.2982,253.5608,106.5138,0,U,67515,999,2688,.46051528E-3,.12435E-3,0
STARLINK-36537,2026-012Z,2026-07-13T10:17:48.351840,15.27587132,.0001281,43.0010,324.1484,224.1963,135.8787,0,U,67516,999,2699,.35908E-3,.9634E-4,0
STARLINK-36544,2026-012AA,2026-07-13T08:52:54.087744,15.27590675,.0001349,43.0000,324.5690,276.5529,83.5169,0,U,67517,999,2698,.36771E-3,.9873E-4,0
