STARLINK-36441          
1 67469U 26008AA  26194.39525545  .00009192  00000+0  34305-3 0  9996
2 67469  42.9996 215.6117 0001240 284.1336  75.9378 15.27588971 28798
STARLINK-36454          
1 67470U 26008AB  26194.42335588 -.00005977  00000+0 -20782-3 0  9991
2 67470  42.9988 214.9512 0001902 262.7285  97.3351 15.27584384 28807
STARLINK-36334          
1 67471U 26008AC  26194.40167682  .00006350  00000+0  23999-3 0  9995
2 67471  42.9997 215.6540 0001734 275.5235  84.5419 15.27591944 28798
STARLINK-36269          
1 67472U 26008AD  26194.45292947  .00006110  00000+0  23134-3 0  9999
2 67472  43.0011 215.1804 0001826 277.1369  82.9275 15.27586384 28800
STARLINK-36408          
1 67473U 26008AE  26194.11829204  .00014200  00000+0  52439-3 0  9994
2 67473  43.0009 216.9644 0001119 258.5128 101.5598 15.27589148 28751
STARLINK-36551          
1 67493U 26012A   26194.40219704  .00014617  00000+0  53919-3 0  9997
2 67493  43.0034 324.8258 0000928 156.9979 203.0915 15.27608522 26985
STARLINK-36396          
1 67494U 26012B   26194.38292703  .00012692  00000+0  46980-3 0  9996
2 67494  42.9990 324.6974 0001209 265.5532  94.5182 15.27590308 26984
STARLINK-36550          
1 67495U 26012C   26194.39450928  .00015759  00000+0  58074-3 0  9997
2 67495  43.0020 324.7726 0001290 263.5009  96.5696 15.27593105 26984
STARLINK-36534          
1 67496U 26012D   26194.38806463  .00007898  00000+0  29607-3 0  9991
2 67496  43.0035 324.7202 0002339 279.5391  80.5197 15.27595826 26987
STARLINK-36555          
1 67497U 26012E   26194.39063498  .00012608  00000+0  46694-3 0  9996
2 67497  43.0007 324.7348 0000770 270.8542  89.2222 15.27577133 26983
STARLINK-36081          
1 67498U 26012F   26194.44959598  .00009392  00000+0  35031-3 0  9997
2 67498  42.9993 324.3238 0001930 279.6021  80.4612 15.27585384 26992
STARLINK-36558          
1 67499U 26012G   26194.38035542  .00008911  00000+0  33284-3 0  9999
2 67499  43.0040 324.6702 0003048 286.6616  73.3901 15.27588800 26984
STARLINK-36557          
1 67500U 26012H   26194.37650227  .00008730  00000+0  32641-3 0  9999
2 67500  42.9981 324.6226 0001290 215.6418 144.4347 15.27577365 26987
STARLINK-36433          
1 67501U 26012J   26194.37264477  .00010417  00000+0  38741-3 0  9990
2 67501  43.0034 324.5989 0002280 293.0884  66.9727 15.27590072 26981
STARLINK-36554          
1 67502U 26012K   26194.43160059  .00012552  00000+0  46467-3 0  9995
2 67502  42.9990 324.1719 0001581 210.6564 149.4195 15.27594488 26993
STARLINK-36552          
1 67503U 26012L   26194.42774883  .00013827  00000+0  51088-3 0  9992
2 67503  43.0019 324.1419 0001670 270.6970  89.3690 15.27589981 26995
STARLINK-36512          
1 67504U 26012M   26194.42003797  .00009822  00000+0  36590-3 0  9993
2 67504  43.0014 324.0821 0001085 218.2641 141.8134 15.27587323 26995
STARLINK-36545          
1 67505U 26012N   26193.76231217  .00011174  00000+0  41490-3 0  9998
2 67505  43.0078 327.7484 0003696 272.6266  87.4163 15.27582013 26895
STARLINK-36553          
1 67506U 26012P   26194.41232733  .00011245  00000+0  41738-3 0  9990
2 67506  42.9981 324.0183 0000855 213.2591 146.8207 15.27592518 26990
STARLINK-36521          
1 67507U 26012Q   26194.40975668  .00007917  00000+0  29698-3 0  9993
2 67507  43.0034 324.0028 0001588 266.6872  93.3798 15.27572972 26991
STARLINK-36526          
1 67508U 26012R   26194.40590135  .00010009  00000+0  37261-3 0  9997
2 67508  42.9988 323.9673 0001098 243.2830 116.7909 15.27592626 26995
STARLINK-36541          
1 67509U 26012S   26194.33553661  .00018050  00000+0  66308-3 0  9991
2 67509  43.0016 325.1962 0000988 265.8620  94.2119 15.27618016 26972
STARLINK-36549          
1 67510U 26012T   26194.40718162  .00010626  00000+0  39496-3 0  9999
2 67510  42.9988 323.9613 0001492 180.5721 179.5129 15.27592131 26994
STARLINK-36540          
1 67511U 26012U   26194.39705103  .00006349  00000+0  23989-3 0  9996
2 67511  42.9980 324.7902 0002156 281.0213  79.0396 15.27599211 26983
STARLINK-36538          
1 67512U 26012V   26193.73805593  .00011822  00000+0  43837-3 0  9994
2 67512  43.0004 328.4277 0001272 260.2103  99.8605 15.27584600 26882
STARLINK-36531          
1 67513U 26012W   26194.38163464  .00007665  00000+0  28760-3 0  9999
2 67513  42.9995 324.6609 0001047 272.5267  87.5464 15.27599782 26989
STARLINK-36530          
1 67514U 26012X   26194.37778264  .00010866  00000+0  40367-3 0  9993
2 67514  42.9998 324.6320 0002355 278.0902  81.9683 15.27589458 26983
STARLINK-36543          
1 67515U 26012Y   26193.72006560  .00012435  00000+0  46052-3 0  9996
2 67515  42.9998 328.2982 0000964 253.5608 106.5138 15.27588288 26881
STARLINK-36537          
1 67516U 26012Z   26194.42903185  .00009634  00000+0  35908-3 0  9999
2 67516  43.0010 324.1484 0001281 224.1963 135.8787 15.27587132 26996
STARLINK-36544          
1 67517U 26012AA  26194.37007046  .00009873  00000+0  36771-3 0  9999
2 67517  43.0000 324.5690 0001349 276.5529  83.5169 15.27590675 26981
